IRIDIUM 144             
1 43249U 18030A   24315.54717051  .00000183  00000+0  58249-4 0  9992
2 43249  86.4007 174.3655 0002267  78.5043 281.6407 14.34219842346508
IRIDIUM 149             
1 43250U 18030B   24315.55351075  .00000079  00000+0  21237-4 0  9996
2 43250  86.4007 174.3362 0001811  79.8281 280.3119 14.34217963346505
IRIDIUM 157             
1 43251U 18030C   24315.85161130  .00000775  00000+0  26953-3 0  9993
2 43251  86.4009 174.2518 0001844  86.8508 273.2899 14.34220908346527
IRIDIUM 140             
1 43252U 18030D   24315.87064300  .00000842  00000+0  29365-3 0  9992
2 43252  86.4008 174.2583 0002124  84.8670 275.2768 14.34218783346580
IRIDIUM 145             
1 43253U 18030E   24315.85795435  .00000616  00000+0  21301-3 0  9992
2 43253  86.4008 174.2367 0002108  73.2707 286.8720 14.34220144346519
IRIDIUM 146             
1 43254U 18030F   24315.07148016  .00001257  00000+0  44159-3 0  9992
2 43254  86.4013 174.5789 0002065  74.3844 285.7579 14.34215911346418
IRIDIUM 148             
1 43255U 18030G   24315.73744604  .00000841  00000+0  29304-3 0  9994
2 43255  86.4009 174.3354 0001924  80.1890 279.9523 14.34221134346552
IRIDIUM 142             
1 43256U 18030H   24315.84526992  .00000466  00000+0  15918-3 0  9994
2 43256  86.4007 174.2009 0001944  71.7244 288.4163 14.34212902346523
